CUTE-1 (CO-55)          
1 27844U 03031E   26170.56610412  .00000202  00000+0  10624-3 0  9992
2 27844  98.6736 179.0951 0009689 171.1603 188.9749 14.24336935192018
CUBESAT XI-IV (CO-57)   
1 27848U 03031J   26170.48547204  .00000165  00000+0  91471-4 0  9993
2 27848  98.6765 178.7263 0009188 190.0962 170.0034 14.23621824191705
CUBESAT XI-V            
1 28895U 05043F   26170.37304894  .00001074  00000+0  17676-3 0  9999
2 28895  98.2987 326.0406 0013797 193.6141 166.4695 14.72636457102072
CUTE-1.7+APD II (CO-65) 
1 32785U 08021C   26170.56893747  .00004483  00000+0  28387-3 0  9990
2 32785  97.8277 152.0370 0009529  31.2532 328.9261 15.09469530985551
CANX-2                  
1 32790U 08021H   26170.48138631  .00003274  00000+0  23110-3 0  9997
2 32790  97.8642 150.3034 0011390  44.3098 315.9038 15.05633347985151
SEEDS II (CO-66)        
1 32791U 08021J   26170.55102446  .00014814  00000+0  46963-3 0  9994
2 32791  97.7522 168.5617 0000744 349.7207  10.4018 15.32817335987654
SWISSCUBE               
1 35932U 09051B   26170.49485083  .00000714  00000+0  15057-3 0  9996
2 35932  98.4033  78.4234 0006120 194.9900 165.1121 14.62485188889492
BEESAT-1                
1 35933U 09051C   26170.50548631  .00000604  00000+0  13109-3 0  9992
2 35933  98.3961  78.0648 0004361 208.2389 151.8576 14.61723595889528
ITUPSAT1                
1 35935U 09051E   26170.29286771  .00000568  00000+0  12725-3 0  9996
2 35935  98.4046  77.0386 0006335 226.1339 133.9337 14.60443384889047
TISAT 1                 
1 36799U 10035E   26170.33820944  .00017593  00000+0  57550-3 0  9991
2 36799  98.0711 117.0778 0001699 165.4538 194.6750 15.31776747868035
AEROCUBE 4.5A           
1 38767U 12048K   26169.97803684  .00461735  96258-4  99291-3 0  9998
2 38767  64.6225  20.3137 0019371 229.0136 130.9352 15.97862216372943
STRAND-1                
1 39090U 13009E   26170.42314841  .00000193  00000+0  79379-4 0  9998
2 39090  98.3923 350.6024 0007842 217.8573 142.2063 14.37164306697387
BRITE-AUSTRIA           
1 39091U 13009F   26170.29768615  .00000120  00000+0  55501-4 0  9997
2 39091  98.3996 349.6811 0009231 229.4697 130.5686 14.36542792697356
NEE-01 PEGASO           
1 39151U 13018B   26170.34231826  .00002563  00000+0  24786-3 0  9992
2 39151  98.1228 314.5632 0013307 152.2100 207.9832 14.93669357711025
POPACS 2                
1 39269U 13055E   26170.25665990  .00012578  00000+0  21242-3 0  9997
2 39269  80.9911 141.8234 0416748 187.1255 172.3929 14.91258090663525
POPACS 3                
1 39270U 13055F   26170.59311065  .00008231  00000+0  19342-3 0  9996
2 39270  80.9999 226.5792 0551932  62.6747 302.9521 14.56159845638903
ZACUBE-1 (TSHEPISOSAT)  
1 39417U 13066B   26170.47359992  .00002409  00000+0  18943-3 0  9996
2 39417  97.8074 132.8224 0041095 239.8049 119.9102 15.01199188681075
WNISAT-1                
1 39423U 13066H   26170.33851001  .00000735  00000+0  14261-3 0  9995
2 39423  97.7205 319.3421 0162084 224.7704 134.0323 14.58065536667045
TRITON-1                
1 39427U 13066M   26170.59169000  .00001794  00000+0  21971-3 0  9990
2 39427  97.8246  80.3441 0088565 225.9441 133.4455 14.81714065674449
GOMX-1                  
1 39430U 13066Q   26170.50113065  .00001376  00000+0  21150-3 0  9990
2 39430  97.6476  10.8173 0130107  70.2331 291.2853 14.69467011670257
CUBEBUG-2 (LO-74)       
1 39440U 13066AA  26170.60863938  .00004144  00000+0  38373-3 0  9994
2 39440  97.8909 119.5969 0058232  21.2784 339.0838 14.93780108677351
NEE-02 KRYSAOR          
1 39441U 13066AB  26170.49766013  .00002047  00000+0  22767-3 0  9998
2 39441  97.8893 109.6957 0067575  62.8163 297.9919 14.86626623676548
FUNCUBE-1 (AO-73)       
1 39444U 13066AE  26170.37665816  .00004964  00000+0  30928-3 0  9995
2 39444  97.8280 141.8681 0035834 193.1795 166.8500 15.09511616679998
UWE-3                   
1 39446U 13066AG  26170.48821017  .00003847  00000+0  33187-3 0  9995
2 39446  97.8700 126.5771 0047259 313.4566  46.2728 14.97040725677922
BRITE-CA1 (TORONTO)     
1 40020U 14033L   26170.61967506  .00000553  00000+0  91013-4 0  9993
2 40020  97.9743 299.5027 0077212 269.0848  90.1513 14.72679560642577
DUCHIFAT-1              
1 40021U 14033M   26169.68438844  .00088318  00000+0  89916-3 0  9990
2 40021  98.0447 229.0553 0002814 113.8680 246.2872 15.64848252655988
NANOSATC-BR1            
1 40024U 14033Q   26170.55757160  .00013791  00000+0  45551-3 0  9996
2 40024  98.0718 203.1557 0004579 156.7506 203.3942 15.31519483654348
QB50P1                  
1 40025U 14033R   26170.25905701  .00006785  00000+0  33444-3 0  9993
2 40025  98.0964 181.5504 0008005 207.6997 152.3810 15.18285787653349
QB50P2                  
1 40032U 14033Y   26170.47756064  .00006408  00000+0  34511-3 0  9999
2 40032  98.0755 167.5004 0008192 156.5164 203.6442 15.15183403653013
PERSEUS-M2              
1 40037U 14033AD  26170.60563559  .00001152  00000+0  10940-3 0  9995
2 40037  97.9967 121.1954 0010389 295.2268  64.7875 14.95514270651143
